ISS (ZARYA)
1 25544U 98067A   26236.48831019  .00016717  00000+0  30000-3 0  9993
2 25544  51.6416 182.2582 0005423  94.3982  22.8423 15.49842105471236
HST (HUBBLE)
1 20580U 90037B   26236.41666667  .00000850  00000+0  45000-4 0  9994
2 20580  28.4695 245.1234 0002845 320.1234 140.5678 15.09245678481231
TIANGONG
1 48274U 21035A   26236.50000000  .00015000  00000+0  25000-3 0  9997
2 48274  41.4723 150.8123 0003500  75.2341 285.1245 15.62500000289123
STARLINK-1007
1 44713U 19074A   26236.31250000  .00001200  00000+0  85000-4 0  9998
2 44713  53.0534 110.4562 0001420  80.1245 280.1245 15.06450000341235
STARLINK-1019
1 44725U 19074N   26236.31250000  .00001250  00000+0  88000-4 0  9992
2 44725  53.0540 110.4650 0001435  80.1300 280.1100 15.06450000341503
COSMOS 2251 DEBRIS
1 33749U 93036KT  26236.25000000  .00003500  00000+0  21000-3 0  9995
2 33749  74.0321  85.2314 0015400 120.4500 240.1200 14.85000000781234
FENGYUN 1C DEBRIS
1 31113U 99025AP  26236.40000000  .00002800  00000+0  18000-3 0  9991
2 31113  98.6120  45.1230 0021000 210.3400 150.2100 14.25000000891230
CZ-4C R/B (ROCKET BODY)
1 25941U 99057B   26236.15000000  .00000950  00000+0  65000-4 0  9996
2 25941  98.2450 310.4500 0012000 180.5000 180.1000 14.50000000671239
IRIDIUM 33 DEBRIS
1 34120U 97051A   26236.21000000  .00004200  00000+0  25000-3 0  9992
2 34120  86.4120 190.1200 0031000  45.1200 315.4500 14.32000000651238
NOAA 19
1 33591U 09005A   26236.33333333  .00000150  00000+0  35000-4 0  9990
2 33591  98.7120  70.2310 0014000 110.1200 250.3400 14.12000000881235
TERRA
1 25994U 99068A   26236.28000000  .00000210  00000+0  42000-4 0  9993
2 25994  98.1980 142.3400 0001450  65.1200 295.1200 14.57000000121234
AQUA
1 27424U 02022A   26236.29000000  .00000220  00000+0  44000-4 0  9997
2 27424  98.2010 143.1200 0001480  66.4500 294.1000 14.57100000111239
ENVISAT DEBRIS
1 27386U 02009A   26236.35000000  .00000300  00000+0  50000-4 0  9994
2 27386  98.5400 205.1200 0001200  85.1200 275.1200 14.38000000991231
COSMOS 1408 DEBRIS
1 49863U 82092A   26236.42000000  .00008500  00000+0  45000-3 0  9998
2 49863  82.5600 320.1200 0045000 140.2300 220.1200 15.12000000541232
SL-16 R/B (ROCKET BODY)
1 22803U 93059B   26236.19000000  .00001800  00000+0  90000-4 0  9999
2 22803  71.0200 115.4500 0021000  95.1200 265.1200 14.72000000711236
LANDSAT 8
1 39084U 13008A   26236.31000000  .00000120  00000+0  30000-4 0  9995
2 39084  98.2100 160.1200 0001500  70.1200 290.1200 14.57100000621238
SENTINEL-1A
1 39634U 14016A   26236.34000000  .00000160  00000+0  38000-4 0  9991
2 39634  98.1800 175.4500 0001300  80.4500 280.1200 14.59000000551233
SWARM A
1 39452U 13067B   26236.46000000  .00004500  00000+0  22000-3 0  9990
2 39452  87.3500 210.1200 0002100  50.1200 310.1200 15.35000000611232
CARTOSAT-2B
1 36795U 10035A   26236.27000000  .00000500  00000+0  45000-4 0  9996
2 36795  97.9800 135.1200 0011000  60.1200 300.1200 14.78000000721237
RISAT-1
1 38248U 12017A   26236.30000000  .00000400  00000+0  40000-4 0  9994
2 38248  97.5500 140.2300 0012000  65.4500 295.1200 14.81000000691235
DEBRIS-TEST-LEO
1 99991U 20001A   26236.48800000  .00016000  00000+0  30000-3 0  9995
2 99991  51.6420 182.2590 0005400  94.4000  22.8500 15.49842000000100
